#dP2022  8 23 18  0  0.00000000      96 __u+U ITR00 EXT  IAC
## 2224 237600.00000000   900.00000000 59814 0.7500000000000
+  117   C06C07C08C09C10C11C12C13C14C16C19C20C21C22C23C24C25
+        C26C27C28C29C30C32C33C34C35C36C37C38C39C40C41C42C43
+        C44C45C46E01E02E03E04E05E07E08E09E10E11E12E13E14E15
+        E18E19E21E24E25E26E27E30E31E33E34E36G01G02G03G04G05
+        G06G07G08G09G10G11G12G13G14G15G16G17G18G19G20G21G22
+        G23G24G25G26G27G28G29G30G31G32J02J03R01R02R03R04R05
+        R07R08R09R11R12R13R14R15R17R18R19R20R21R24R25  0  0
++         7 10 10  9 10  8  9  9  9  8  9  8  9  7  8  9  8
++        10  9  8  7  9  9  9  8  7  9  9 11  8  9  9  9  9
++         7  9  9  7  8  9  7  6  7  8  8  7  8  7  7  8  7
++         8  8  8  6  7  8  7  7  9  8  7  7  6  7  8  9  7
++         7  8  6  7  6  6  7  8  7  8  8  8  6  8  6  7  7
++         8  6  6  8  6  9  7  7  8  8  8  9 10  8  7  7  9
++         9  8  9  8  9  9  9  8  8  7  9  9  8  9  8  0  0
%c M  cc GPS ccc cccc cccc cccc cccc ccccc ccccc ccccc ccccc
%c cc cc ccc ccc cccc cccc cccc cccc ccccc ccccc ccccc ccccc
%f  0.0000000  0.000000000  0.00000000000  0.000000000000000
%f  0.0000000  0.000000000  0.00000000000  0.000000000000000
%i    0    0    0    0      0      0      0      0         0
%i    0    0    0    0      0      0      0      0         0
/* IAC                                ULTRA-RAPID PREDICTION
/* S/V CLOCKS ARE ALIGNED TO GNSS TIME                      
/* G:C1WC2W R:C1PC2P E:C1XC5X C:C2IC6I J:C1CC2S             
/* PCV:IGS14_2218 OL/AL:FES2004  NONE     YN ORB:CoN CLK:CoN
*  2022 08 24 16 15  0.00000000
PC06 -18778.481038  33217.771965  17692.728985    682.957609
PC07  -4349.039470  37664.250129  18657.789417    -46.749903
PC08  -6454.002142  19843.180546 -36647.313595    451.243776
PC09 -11253.288477  31917.953500  25199.236376   -885.026356
PC10   1385.053598  40311.888557  13434.969942    104.971249
PC11  20716.463938  -3937.223313 -18194.174536   -450.072333
PC12   9049.012408  12609.032381 -23159.457864   -540.797503
PC13    722.255478  22914.115164 -35237.731767     61.643607
PC14  17109.768982   5514.649712  21372.386543    609.807019
PC16 -21399.102080  32961.105641  15090.831041    141.490252
PC19 -14737.711917   5638.773954 -22998.946022   -500.971151
PC20 -16769.340857 -13903.149567 -17419.579538    254.707213
PC21   8793.103091  26482.422525    926.853378   -252.652220
PC22  -4142.164823  22821.540872 -15543.588189   -316.929808
PC23  10804.477980 -13615.624817 -21817.718109   -971.478183
PC24  24834.114011  10774.405762   6725.470705   -970.050967
PC25  25094.867042  -3379.380440 -11709.789172   -688.238257
PC26  11391.837152  16558.537286  19337.693253    690.580979
PC27  -1392.570238 -18973.041393  20397.317454     10.281174
PC28  14387.972916 -22664.781693   7601.790019      5.002434
PC29 -21908.633586  13638.924355  10617.210474      4.215452
PC30 -16491.744362  -4480.107104  22050.394314    502.397425
PC32  -8927.244886 -26420.239826   -818.613039   -851.323628
PC33  14790.153048  -5582.809782  22993.874836   -490.238769
PC34  17203.552451   3446.134585 -21716.263500   -328.984139
PC35 -14477.770934  22974.306174  -6378.954365    427.196748
PC36 -25433.475358   2412.384242  11264.531525   -967.960906
PC37  -9741.182869 -16934.487559 -19912.274403   -939.780523
PC38 -15459.799609  19119.698005 -34264.607879     19.428615
PC39 -23915.908829  33380.921947   9117.051179     -0.301113
PC40  -8274.175893  34638.175662  22727.615515     -2.880911
PC41   4491.959060 -22483.332758  15951.048959    -15.226649
PC42  16674.196996  14981.648891  16672.151034   -171.730288
PC43  22048.107028 -12926.477165 -11233.220872     10.437628
PC44   2023.010253  19093.563986 -20254.492088     27.946658
PC45 -10428.547012  13655.283429  22002.272285    843.309404
PC46 -25635.483960  -9792.147019  -5166.312771   -503.997490
PE01 -10201.892070  13278.770820  24416.725524   -540.979057
PE02  10024.748935 -13426.140761 -24395.567681    320.386921
PE03  12853.242434 -24786.444044   9803.826142   -592.788895
PE04   -523.224874  28375.535749   8420.366674  -1100.493246
PE05  17892.121449  -6539.036834  22655.566866   -150.500732
PE07 -12449.912847 -15204.505756 -22129.870869   -699.439180
PE08    400.192424 -28324.607453  -8565.293389   -586.854368
PE09  12322.232484  15234.671411  22191.871809   -634.263802
PE10  10407.568141  13208.604305 -24370.043349   -472.063747
PE11  20473.226819   7338.397062 -20096.359580   2506.102993
PE12   -591.650010  16756.087555 -24400.272557   -132.229648
PE13 -19837.905130  -7716.121213  20567.936067    430.367200
PE14  19622.373480 -11635.040943 -16641.203316  -1740.168995
PE15    802.129168 -16727.836288  24405.567844    724.829160
PE18 -13941.939233  25786.494481   3336.998042  -1057.263211
PE19 -14042.763832  23100.216771 -12052.596807  -4720.543137
PE21 -22377.909985  -3129.139752  19127.264205   -753.699521
PE24  22137.419886  19576.903856  -1514.199067   -798.662499
PE25  22486.623877   3416.675352 -18929.912534   -585.588895
PE26 -28692.250246   6238.420508   3790.718555  -1532.598683
PE27 -22633.055392 -18911.326360   2552.085682   -375.869358
PE30  -8667.142865 -23352.346364 -15999.776089   -780.706818
PE31   9546.477218  23420.477336  15394.159345   -502.247140
PE33 -20852.592070  15820.368871 -13825.916400   -453.671299
PE34  20673.734437 -15905.831110  13964.979984     -1.035678
PE36  28655.451773  -5733.473048  -4708.237230   -421.417869
PG01   5004.220738  14025.150731 -22321.088348    296.180660
PG02   9166.220427 -16531.177310  19379.634513   -648.201519
PG03  10251.441863  22312.728484 -10385.668930   -338.379411
PG04    623.573775  23319.698428  12616.597136   -128.611290
PG05    736.627296 -18342.111622  18970.657475    -94.083518
PG06  25668.538737  -6595.604503   2362.439483    436.913063
PG07  20336.075528   7659.725146  16013.454121    312.558731
PG08  -4824.679108  25565.973013  -4328.035188    -81.795453
PG09   9798.198329  14944.061784  19565.810764   -304.461018
PG10 -20343.731287  -6993.886010 -15628.197004   -539.535139
PG11  19532.498054 -12153.812107  13243.407174    -12.443932
PG12  -7303.536091 -22888.975415 -11702.638963   -267.396061
PG13  13216.976453 -22768.944816   2487.750670    374.139985
PG14  20508.722338   8751.288248 -14505.268675   -107.740086
PG15   1522.107242 -25997.153726  -4738.497951    -34.651993
PG16  -7989.712012  13590.583620  21025.854170   -521.782884
PG17  15618.368303   -767.371040 -21043.971580    651.936851
PG18 -20628.945323  -6887.714460  15328.790739     71.399989
PG19  17532.648405 -10256.054064 -17225.743372    201.490244
PG20  12233.403776  -9953.552116  21356.511799    492.129542
PG21  -4697.961016  15883.175989 -19969.443639    160.197757
PG22 -17023.142797  13514.391986 -14726.728829    315.541027
PG23 -20751.452618 -15072.808100  -7155.946223    -37.899336
PG24  -1218.237806 -16092.121484 -21370.072022    158.322031
PG25 -17276.016144 -20357.236933   -986.154186    364.446472
PG26 -15326.817028   6224.806814  20745.004220    225.290453
PG27 -12611.096197  21883.816315   7319.228349    217.476519
PG28  17125.357367    415.815846 -19724.642573    340.565609
PG29  -7738.790162 -15800.234480  19823.485791   -545.629198
PG30  25875.595255    172.573930   6649.354647   -536.300876
PG31 -25408.348957   7436.678719   4083.826170   -190.842366
PG32 -16357.178713   4117.815857 -20321.286319   -213.057914
PJ02 -26619.268350  21062.403796  30046.810180     -3.707257
PJ03 -34830.192696  23548.369735    835.120400     -0.914492
PR01  11138.645498    244.489051  22943.979783     13.663156
PR02   5641.773471 -18950.828475  16193.425054    527.839389
PR03  -2852.050874 -25379.638418     74.719502     62.458150
PR04  -9356.609316 -17632.535761 -15865.337784    155.074422
PR05 -10850.793493   -283.522104 -23077.024551     98.477031
PR07   3235.155341  25264.020183    818.914715     39.880225
PR08   9586.972763  17403.671280  16031.378018    -66.863080
PR09 -10428.899409   7531.585248  22035.820159     72.961098
PR11  20889.860346  12564.672908   7555.234514     29.468125
PR12  22630.288699   3905.695841 -11056.572172     20.382312
PR13  11800.567832  -6390.740639 -21700.040900    -26.048716
PR14  -7555.516984 -13767.534807 -20074.882758     24.427911
PR15 -21222.239090 -12531.752941  -6537.232758     94.056390
PR17   5336.957148 -15082.781856  19853.621087    555.215589
PR18  -9935.854812  -5475.536374  22852.311922     39.086921
PR19 -19970.192360   5612.925732  14849.562984   -201.155371
PR20 -19392.644739  15784.897664  -4956.658684    -77.138726
PR21  -4082.199219  14423.244370 -20653.677095   -328.182603
PR24  18563.973850 -16556.731250   5606.566548    110.730277
PR25  10569.353936   5684.274009 -22486.147518     12.458894
EOF
